COSMOS 2531 (RODNIK-S *)
1 43752U 18097B   26181.51974701 -.00000027  00000+0 -26555-3 0  9994
2 43752  82.5171 215.0693 0017244  30.5256 329.6824 12.42912701343960
COSMOS 2532 (RODNIK-S *)
1 43753U 18097C   26181.54804985 -.00000073  00000+0 -59678-3 0  9997
2 43753  82.5115 213.8317 0018647  32.2963 327.9255 12.42909904343937
MINXSS-2                
1 43758U 18099A   26181.54316206  .00034995  00000+0  67328-3 0  9997
2 43758  97.4535 258.2263 0007793 205.9545 154.1315 15.47801901416193
SIRION PATHFINDER-2     
1 43759U 18099B   26181.06462727  .00004711  00000+0  25812-3 0  9990
2 43759  97.4246 229.8162 0007190 249.9523 110.0936 15.14659229414578
AISTECHSAT 2            
1 43768U 18099L   26181.09619549  .00004853  00000+0  25915-3 0  9990
2 43768  97.4285 228.8478 0003247 241.3967 118.6939 15.15573376414236
FOX-1CLIFF (AO-95)      
1 43770U 18099N   26181.11954567  .00010231  00000+0  38875-3 0  9994
2 43770  97.4382 241.3196 0007026 305.2018  54.8563 15.26976456415198
RANGE-A                 
1 43773U 18099R   26180.93854315  .00005124  00000+0  28962-3 0  9997
2 43773  97.3957 223.1446 0008735 307.9528  52.0914 15.13492933414421
SNUSAT-2                
1 43782U 18099AA  26181.08847136  .00009144  00000+0  40263-3 0  9991
2 43782  97.4054 234.2745 0008851 244.7772 115.2547 15.22028796414991
SNUGLITE                
1 43784U 18099AC  26181.57459507  .00011606  00000+0  43435-3 0  9998
2 43784  97.3860 235.7243 0002102 205.8124 154.3011 15.27462325415365
ITASAT                  
1 43786U 18099AE  26181.59069529  .00006267  00000+0  30036-3 0  9993
2 43786  97.4020 232.8356 0010949 309.6889  50.3380 15.19218577414944
EAGLET-I                
1 43790U 18099AJ  26180.94944801  .00004740  00000+0  27160-3 0  9999
2 43790  97.4226 230.2798 0009647 305.6486  54.3846 15.13032446414260
ESEO                    
1 43792U 18099AL  26181.55071462  .00001035  00000+0  78482-4 0  9991
2 43792  97.3967 218.3673 0010122 291.4741  68.5406 15.04286361413814
THEA                    
1 43796U 18099AQ  26181.43353600  .00016572  00000+0  48266-3 0  9997
2 43796  97.4441 251.2574 0006652 226.9526 133.1161 15.35453087414722
ASTROCAST 0.1           
1 43798U 18099AS  26180.78618291  .00033146  00000+0  58304-3 0  9996
2 43798  97.4379 259.6823 0005694 168.1650 191.9736 15.50394855416381
JY1SAT (JO-97)          
1 43803U 18099AX  26181.14334601  .00015212  00000+0  46343-3 0  9998
2 43803  97.4129 244.0253 0005404 207.7837 152.3117 15.34057952415617
SUOMI-100               
1 43804U 18099AY  26181.10256976  .00010790  00000+0  38870-3 0  9995
2 43804  97.4182 241.4494 0009077 226.1565 133.8926 15.28706711415392
CENTAURI-1              
1 43809U 18099BD  26180.87549785  .00005668  00000+0  29391-3 0  9992
2 43809  97.4216 232.3228 0012366 284.7542  75.2321 15.16488025414422
GLOBAL-2                
1 43812U 18099BG  26181.53859399  .00002724  00000+0  17726-3 0  9994
2 43812  97.3545 217.4967 0007622 106.2802 253.9267 15.08747720413929
SEAHAWK-1               
1 43820U 18099BQ  26181.08040499  .00009492  00000+0  40608-3 0  9990
2 43820  97.3952 233.3702 0006607 258.9736 101.0757 15.23012255414492
SAUDISAT 5A             
1 43831U 18102A   26181.58873950  .00005438  00000+0  20029-3 0  9999
2 43831  97.3062 242.9119 0011272  88.6103 271.6428 15.28183775417723
SAUDISAT 5B             
1 43833U 18102C   26181.60536166  .00005109  00000+0  18689-3 0  9993
2 43833  97.3172 246.0222 0011991  90.2632 269.9982 15.28433608417842
ISAT                    
1 43879U 18111D   26181.38552817  .00097741  00000+0  88406-3 0  9996
2 43879  97.5869 117.6447 0004520 162.6409 197.5007 15.67772441413232
UWE-4                   
1 43880U 18111E   26181.28532120  .00030312  00000+0  60219-3 0  9995
2 43880  97.5854 110.2868 0004315 269.5184  90.5570 15.46924392412803
D-STAR ONE (SPARROW)    
1 43881U 18111F   26181.39765818  .00186399  00000+0  10453-2 0  9991
2 43881  97.6106 123.5335 0005445 139.6981 220.4690 15.78756171413450
JILIN-1 09              
1 43943U 19005B   26181.53882796  .00004665  00000+0  21583-3 0  9996
2 43943  97.4749 276.3879 0003392  67.8846 292.2749 15.20626961411170
JILIN-1 10              
1 43946U 19005E   26181.57089421  .00005690  00000+0  22498-3 0  9992
2 43946  97.4798 280.3761 0007167 222.4739 137.5946 15.25861529411352
EGYPTSAT-A (MISRSAT-A)  
1 44047U 19008A   26181.59956641  .00000502  00000+0  87146-4 0  9996
2 44047  98.0195 246.1808 0001544  97.2530 262.8853 14.72321812395217
EMISAT                  
1 44078U 19018A   26181.59019109  .00000397  00000+0  12963-3 0  9996
2 44078  98.4645 240.3168 0018397 173.8368 186.3052 14.43643978381993
