OBJECT_NAME,OBJECT_ID,EPOCH,MEAN_MOTION,ECCENTRICITY,INCLINATION,RA_OF_ASC_NODE,ARG_OF_PERICENTER,MEAN_ANOMALY,EPHEMERIS_TYPE,CLASSIFICATION_TYPE,NORAD_CAT_ID,ELEMENT_SET_NO,REV_AT_EPOCH,BSTAR,MEAN_MOTION_DOT,MEAN_MOTION_DDOT
COSMOS 2531 (RODNIK-S 17),2018-097B,2026-06-30T12:28:26.141664,12.42912701,.00172442,82.5171,215.0693,30.5256,329.6824,0,U,43752,999,34396,-.26554551E-3,-.27E-6,0
COSMOS 2532 (RODNIK-S 18),2018-097C,2026-06-30T13:09:11.507040,12.42909904,.00186477,82.5115,213.8317,32.2963,327.9255,0,U,43753,999,34393,-.59678051E-3,-.73E-6,0
MINXSS-2,2018-099A,2026-06-30T13:02:09.201984,15.47801901,.00077935,97.4535,258.2263,205.9545,154.1315,0,U,43758,999,41619,.67327568E-3,.34995E-3,0
SIRION PATHFINDER-2,2018-099B,2026-06-30T01:33:03.796128,15.14659229,.00071909,97.4246,229.8162,249.9523,110.0936,0,U,43759,999,41457,.25812186E-3,.4711E-4,0
AISTECHSAT 2,2018-099L,2026-06-30T02:18:31.290336,15.15573376,.00032479,97.4285,228.8478,241.3967,118.6939,0,U,43768,999,41423,.25915289E-3,.4853E-4,0
FOX-1CLIFF (AO-95),2018-099N,2026-06-30T02:52:08.745888,15.26976456,.00070264,97.4382,241.3196,305.2018,54.8563,0,U,43770,999,41519,.38875261E-3,.10231E-3,0
RANGE-A,2018-099R,2026-06-29T22:31:30.128160,15.13492933,.00087356,97.3957,223.1446,307.9528,52.0914,0,U,43773,999,41442,.28961688E-3,.5124E-4,0
SNUSAT-2,2018-099AA,2026-06-30T02:07:23.925504,15.22028796,.00088515,97.4054,234.2745,244.7772,115.2547,0,U,43782,999,41499,.40262881E-3,.9144E-4,0
SNUGLITE,2018-099AC,2026-06-30T13:47:25.014048,15.27462325,.00021026,97.3860,235.7243,205.8124,154.3011,0,U,43784,999,41536,.43434525E-3,.11606E-3,0
ITASAT,2018-099AE,2026-06-30T14:10:36.073056,15.19218577,.00109494,97.4020,232.8356,309.6889,50.3380,0,U,43786,999,41494,.30036376E-3,.6267E-4,0
EAGLET-I,2018-099AJ,2026-06-29T22:47:12.308064,15.13032446,.00096473,97.4226,230.2798,305.6486,54.3846,0,U,43790,999,41426,.27160213E-3,.474E-4,0
ESEO,2018-099AL,2026-06-30T13:13:01.743168,15.04286361,.00101225,97.3967,218.3673,291.4741,68.5406,0,U,43792,999,41381,.78481696E-4,.1035E-4,0
THEA,2018-099AQ,2026-06-30T10:24:17.510400,15.35453087,.00066529,97.4441,251.2574,226.9526,133.1161,0,U,43796,999,41472,.48266289E-3,.16572E-3,0
ASTROCAST 0.1,2018-099AS,2026-06-29T18:52:06.203424,15.50394855,.00056944,97.4379,259.6823,168.1650,191.9736,0,U,43798,999,41638,.58303763E-3,.33146E-3,0
JY1SAT (JO-97),2018-099AX,2026-06-30T03:26:25.095264,15.34057952,.0005404,97.4129,244.0253,207.7837,152.3117,0,U,43803,999,41561,.4634271E-3,.15212E-3,0
SUOMI-100,2018-099AY,2026-06-30T02:27:42.027264,15.28706711,.00090771,97.4182,241.4494,226.1565,133.8926,0,U,43804,999,41539,.38869752E-3,.1079E-3,0
CENTAURI-1,2018-099BD,2026-06-29T21:00:43.014240,15.16488025,.00123667,97.4216,232.3228,284.7542,75.2321,0,U,43809,999,41442,.29390537E-3,.5668E-4,0
GLOBAL-2,2018-099BG,2026-06-30T12:55:34.520736,15.08747720,.00076223,97.3545,217.4967,106.2802,253.9267,0,U,43812,999,41392,.17725586E-3,.2724E-4,0
SEAHAWK-1,2018-099BQ,2026-06-30T01:55:46.991136,15.23012255,.00066075,97.3952,233.3702,258.9736,101.0757,0,U,43820,999,41449,.40608225E-3,.9492E-4,0
SAUDISAT 5A,2018-102A,2026-06-30T14:07:47.092800,15.28183775,.00112725,97.3062,242.9119,88.6103,271.6428,0,U,43831,999,41772,.20029382E-3,.5438E-4,0
SAUDISAT 5B,2018-102C,2026-06-30T14:31:43.247424,15.28433608,.00119916,97.3172,246.0222,90.2632,269.9982,0,U,43833,999,41784,.18689233E-3,.5109E-4,0
ISAT,2018-111D,2026-06-30T09:15:09.633888,15.67772441,.00045204,97.5869,117.6447,162.6409,197.5007,0,U,43879,999,41323,.88405931E-3,.97741E-3,0
UWE-4,2018-111E,2026-06-30T06:50:51.751680,15.46924392,.00043159,97.5854,110.2868,269.5184,90.5570,0,U,43880,999,41280,.60219102E-3,.30312E-3,0
D-STAR ONE (SPARROW),2018-111F,2026-06-30T09:32:37.666752,15.78756171,.00054455,97.6106,123.5335,139.6981,220.4690,0,U,43881,999,41345,.10452692E-2,.186399E-2,0
JILIN-1 09,2019-005B,2026-06-30T12:55:54.735744,15.20626961,.00033925,97.4749,276.3879,67.8846,292.2749,0,U,43943,999,41117,.21583107E-3,.4665E-4,0
JILIN-1 10,2019-005E,2026-06-30T13:42:05.259744,15.25861529,.00071676,97.4798,280.3761,222.4739,137.5946,0,U,43946,999,41135,.22497667E-3,.569E-4,0
EGYPTSAT-A (MISRSAT-A),2019-008A,2026-06-30T14:23:22.537824,14.72321812,.00015441,98.0195,246.1808,97.2530,262.8853,0,U,44047,999,39521,.87145629E-4,.502E-5,0
EMISAT,2019-018A,2026-06-30T14:09:52.510176,14.43643978,.00183978,98.4645,240.3168,173.8368,186.3052,0,U,44078,999,38199,.12963029E-3,.397E-5,0
